[
    {
        "Altitude(m)": 566273.0613881386,
        "Argument of Periapsis(deg)": -0.022603160782972403,
        "Eccentricity": 0.0,
        "Inclination(deg)": 97.0,
        "Latitude(deg)": 1.4876459724271416,
        "Longitude(deg)": -162.16312557602484,
        "Mean Anomaly(deg)": 178.4107432691875,
        "RAAN(deg)": 120.0059470536185,
        "Satellite Name": "Starlink Shell 3 1839",
        "Satellite Number": 1839,
        "Semi-Major Axis(m)": 6938478.169268562,
        "Time(s)": 570
    },
    {
        "Altitude(m)": 566345.9956124839,
        "Argument of Periapsis(deg)": -0.02299970746337543,
        "Eccentricity": 0.0,
        "Inclination(deg)": 97.0,
        "Latitude(deg)": 0.8632313895393675,
        "Longitude(deg)": -162.28108567835,
        "Mean Anomaly(deg)": 179.03621946689253,
        "RAAN(deg)": 120.00605138789251,
        "Satellite Name": "Starlink Shell 3 1839",
        "Satellite Number": 1839,
        "Semi-Major Axis(m)": 6938478.169268562,
        "Time(s)": 580
    },
    {
        "Altitude(m)": 566423.2358877496,
        "Argument of Periapsis(deg)": -0.023396254143778456,
        "Eccentricity": 0.0,
        "Inclination(deg)": 97.0,
        "Latitude(deg)": 0.2388273267110083,
        "Longitude(deg)": -162.39901910207735,
        "Mean Anomaly(deg)": 179.66169566459757,
        "RAAN(deg)": 120.00615572216651,
        "Satellite Name": "Starlink Shell 3 1839",
        "Satellite Number": 1839,
        "Semi-Major Axis(m)": 6938478.169268562,
        "Time(s)": 590
    },
    {
        "Altitude(m)": 566504.7741029774,
        "Argument of Periapsis(deg)": -0.023792800824181483,
        "Eccentricity": 0.0,
        "Inclination(deg)": 97.0,
        "Latitude(deg)": -0.3855632175025218,
        "Longitude(deg)": -162.51694390616404,
        "Mean Anomaly(deg)": 180.28717186230264,
        "RAAN(deg)": 120.00626005644054,
        "Satellite Name": "Starlink Shell 3 1839",
        "Satellite Number": 1839,
        "Semi-Major Axis(m)": 6938478.169268562,
        "Time(s)": 600
    },
    {
        "Altitude(m)": 566590.6000673965,
        "Argument of Periapsis(deg)": -0.024189347504584503,
        "Eccentricity": 0.0,
        "Inclination(deg)": 97.0,
        "Latitude(deg)": -1.0099372468355952,
        "Longitude(deg)": -162.63487814090465,
        "Mean Anomaly(deg)": 180.91264806000768,
        "RAAN(deg)": 120.00636439071454,
        "Satellite Name": "Starlink Shell 3 1839",
        "Satellite Number": 1839,
        "Semi-Major Axis(m)": 6938478.169268562,
        "Time(s)": 610
    },
    {
        "Altitude(m)": 566680.701512249,
        "Argument of Periapsis(deg)": -0.02458589418498753,
        "Eccentricity": 0.0,
        "Inclination(deg)": 97.0,
        "Latitude(deg)": -1.6342917672442627,
        "Longitude(deg)": -162.75283936029177,
        "Mean Anomaly(deg)": 181.53812425771272,
        "RAAN(deg)": 120.00646872498855,
        "Satellite Name": "Starlink Shell 3 1839",
        "Satellite Number": 1839,
        "Semi-Major Axis(m)": 6938478.169268562,
        "Time(s)": 620
    },
    {
        "Altitude(m)": 566775.0640936843,
        "Argument of Periapsis(deg)": -0.024982440865390556,
        "Eccentricity": 0.0,
        "Inclination(deg)": 97.0,
        "Latitude(deg)": -2.2586237868323007,
        "Longitude(deg)": -162.87084581536215,
        "Mean Anomaly(deg)": 182.16360045541776,
        "RAAN(deg)": 120.00657305926255,
        "Satellite Name": "Starlink Shell 3 1839",
        "Satellite Number": 1839,
        "Semi-Major Axis(m)": 6938478.169268562,
        "Time(s)": 630
    },
    {
        "Altitude(m)": 566873.6713966546,
        "Argument of Periapsis(deg)": -0.025378987545793576,
        "Eccentricity": 0.0,
        "Inclination(deg)": 97.0,
        "Latitude(deg)": -2.882930315778119,
        "Longitude(deg)": -162.98891512613474,
        "Mean Anomaly(deg)": 182.78907665312278,
        "RAAN(deg)": 120.00667739353658,
        "Satellite Name": "Starlink Shell 3 1839",
        "Satellite Number": 1839,
        "Semi-Major Axis(m)": 6938478.169268562,
        "Time(s)": 640
    },
    {
        "Altitude(m)": 566976.504939944,
        "Argument of Periapsis(deg)": -0.025775534226196602,
        "Eccentricity": 0.0,
        "Inclination(deg)": 97.0,
        "Latitude(deg)": -3.5072083662495936,
        "Longitude(deg)": -163.10706547508582,
        "Mean Anomaly(deg)": 183.4145528508278,
        "RAAN(deg)": 120.00678172781056,
        "Satellite Name": "Starlink Shell 3 1839",
        "Satellite Number": 1839,
        "Semi-Major Axis(m)": 6938478.169268562,
        "Time(s)": 650
    },
    {
        "Altitude(m)": 567083.5441821823,
        "Argument of Periapsis(deg)": -0.026172080906599626,
        "Eccentricity": 0.0,
        "Inclination(deg)": 97.0,
        "Latitude(deg)": -4.131454952312024,
        "Longitude(deg)": -163.22531511976644,
        "Mean Anomaly(deg)": 184.04002904853294,
        "RAAN(deg)": 120.00688606208458,
        "Satellite Name": "Starlink Shell 3 1839",
        "Satellite Number": 1839,
        "Semi-Major Axis(m)": 6938478.169268562,
        "Time(s)": 660
    },
    {
        "Altitude(m)": 567194.7665289423,
        "Argument of Periapsis(deg)": -0.026568627587002652,
        "Eccentricity": 0.0,
        "Inclination(deg)": 97.0,
        "Latitude(deg)": -4.755667089823771,
        "Longitude(deg)": -163.34368190556845,
        "Mean Anomaly(deg)": 184.66550524623796,
        "RAAN(deg)": 120.00699039635857,
        "Satellite Name": "Starlink Shell 3 1839",
        "Satellite Number": 1839,
        "Semi-Major Axis(m)": 6938478.169268562,
        "Time(s)": 670
    },
    {
        "Altitude(m)": 567310.1473408573,
        "Argument of Periapsis(deg)": -0.02696517426740568,
        "Eccentricity": 0.0,
        "Inclination(deg)": 97.0,
        "Latitude(deg)": -5.37984179631447,
        "Longitude(deg)": -163.46218429154447,
        "Mean Anomaly(deg)": 185.290981443943,
        "RAAN(deg)": 120.0070947306326,
        "Satellite Name": "Starlink Shell 3 1839",
        "Satellite Number": 1839,
        "Semi-Major Axis(m)": 6938478.169268562,
        "Time(s)": 680
    },
    {
        "Altitude(m)": 567429.6599427867,
        "Argument of Periapsis(deg)": -0.0273617209478087,
        "Eccentricity": 0.0,
        "Inclination(deg)": 97.0,
        "Latitude(deg)": -6.003976090847864,
        "Longitude(deg)": -163.5808408635713,
        "Mean Anomaly(deg)": 185.91645764164804,
        "RAAN(deg)": 120.0071990649066,
        "Satellite Name": "Starlink Shell 3 1839",
        "Satellite Number": 1839,
        "Semi-Major Axis(m)": 6938478.169268562,
        "Time(s)": 690
    },
    {
        "Altitude(m)": 567553.2756340323,
        "Argument of Periapsis(deg)": -0.027758267628211725,
        "Eccentricity": 0.0,
        "Inclination(deg)": 97.0,
        "Latitude(deg)": -6.628066993864143,
        "Longitude(deg)": -163.6996698477642,
        "Mean Anomaly(deg)": 186.54193383935302,
        "RAAN(deg)": 120.00730339918061,
        "Satellite Name": "Starlink Shell 3 1839",
        "Satellite Number": 1839,
        "Semi-Major Axis(m)": 6938478.169268562,
        "Time(s)": 700
    },
    {
        "Altitude(m)": 567680.9636995512,
        "Argument of Periapsis(deg)": -0.028154814308614752,
        "Eccentricity": 0.0,
        "Inclination(deg)": 97.0,
        "Latitude(deg)": -7.252111526997071,
        "Longitude(deg)": -163.81869013705287,
        "Mean Anomaly(deg)": 187.16741003705818,
        "RAAN(deg)": 120.00740773345464,
        "Satellite Name": "Starlink Shell 3 1839",
        "Satellite Number": 1839,
        "Semi-Major Axis(m)": 6938478.169268562,
        "Time(s)": 710
    },
    {
        "Altitude(m)": 567812.6914221955,
        "Argument of Periapsis(deg)": -0.02855136098901778,
        "Eccentricity": 0.0,
        "Inclination(deg)": 97.0,
        "Latitude(deg)": -7.876106712866685,
        "Longitude(deg)": -163.93792080520862,
        "Mean Anomaly(deg)": 187.7928862347632,
        "RAAN(deg)": 120.00751206772864,
        "Satellite Name": "Starlink Shell 3 1839",
        "Satellite Number": 1839,
        "Semi-Major Axis(m)": 6938478.169268562,
        "Time(s)": 720
    },
    {
        "Altitude(m)": 567948.4240959897,
        "Argument of Periapsis(deg)": -0.028947907669420805,
        "Eccentricity": 0.0,
        "Inclination(deg)": 97.0,
        "Latitude(deg)": -8.500049574844356,
        "Longitude(deg)": -164.05738062123478,
        "Mean Anomaly(deg)": 188.41836243246814,
        "RAAN(deg)": 120.00761640200265,
        "Satellite Name": "Starlink Shell 3 1839",
        "Satellite Number": 1839,
        "Semi-Major Axis(m)": 6938478.169268562,
        "Time(s)": 730
    },
    {
        "Altitude(m)": 568088.1250403825,
        "Argument of Periapsis(deg)": -0.029344454349823825,
        "Eccentricity": 0.0,
        "Inclination(deg)": 97.0,
        "Latitude(deg)": -9.12393713678207,
        "Longitude(deg)": -164.17708907703383,
        "Mean Anomaly(deg)": 189.04383863017327,
        "RAAN(deg)": 120.00772073627665,
        "Satellite Name": "Starlink Shell 3 1839",
        "Satellite Number": 1839,
        "Semi-Major Axis(m)": 6938478.169268562,
        "Time(s)": 740
    },
    {
        "Altitude(m)": 568231.7556155104,
        "Argument of Periapsis(deg)": -0.029741001030226845,
        "Eccentricity": 0.0,
        "Inclination(deg)": 97.0,
        "Latitude(deg)": -9.74776642271021,
        "Longitude(deg)": -164.29706590264422,
        "Mean Anomaly(deg)": 189.66931482787825,
        "RAAN(deg)": 120.00782507055068,
        "Satellite Name": "Starlink Shell 3 1839",
        "Satellite Number": 1839,
        "Semi-Major Axis(m)": 6938478.169268562,
        "Time(s)": 750
    }
]